[{"OBJECT_NAME":"STARLINK-5303","OBJECT_ID":"2023-021C","EPOCH":"2026-03-09T19:15:47.208672","MEAN_MOTION":14.98330043,"ECCENTRICITY":0.00030645,"INCLINATION":70.0006,"RA_OF_ASC_NODE":204.2304,"ARG_OF_PERICENTER":269.6598,"MEAN_ANOMALY":90.421,"EPHEMERIS_TYPE":0,"CLASSIFICATION_TYPE":"U","NORAD_CAT_ID":55630,"ELEMENT_SET_NO":999,"REV_AT_EPOCH":16831,"BSTAR":1.049799e-5,"MEAN_MOTION_DOT":3.2e-7,"MEAN_MOTION_DDOT":0},{"OBJECT_NAME":"OBJECT L","OBJECT_ID":"2024-205L","EPOCH":"2026-03-07T03:22:40.585728","MEAN_MOTION":15.10822925,"ECCENTRICITY":0.00547724,"INCLINATION":97.4213,"RA_OF_ASC_NODE":140.2188,"ARG_OF_PERICENTER":346.2042,"MEAN_ANOMALY":13.7688,"EPHEMERIS_TYPE":0,"CLASSIFICATION_TYPE":"U","NORAD_CAT_ID":61904,"ELEMENT_SET_NO":999,"REV_AT_EPOCH":7282,"BSTAR":0.00079283043,"MEAN_MOTION_DOT":0.00013606,"MEAN_MOTION_DDOT":0}]
